[{"OBJECT_NAME":"STARLINK-3601","OBJECT_ID":"2022-017AN","EPOCH":"2026-03-09T22:52:16.494816","MEAN_MOTION":15.08840434,"ECCENTRICITY":0.00014002,"INCLINATION":53.2206,"RA_OF_ASC_NODE":327.9428,"ARG_OF_PERICENTER":88.6084,"MEAN_ANOMALY":271.5069,"EPHEMERIS_TYPE":0,"CLASSIFICATION_TYPE":"U","NORAD_CAT_ID":51804,"ELEMENT_SET_NO":999,"REV_AT_EPOCH":22419,"BSTAR":3.2557071e-5,"MEAN_MOTION_DOT":2.3e-6,"MEAN_MOTION_DDOT":0},{"OBJECT_NAME":"LEMUR-2-LLOYD","OBJECT_ID":"2024-149DP","EPOCH":"2026-03-09T11:02:25.245024","MEAN_MOTION":15.07168338,"ECCENTRICITY":0.00051866,"INCLINATION":97.678,"RA_OF_ASC_NODE":149.6779,"ARG_OF_PERICENTER":125.6096,"MEAN_ANOMALY":234.5616,"EPHEMERIS_TYPE":0,"CLASSIFICATION_TYPE":"U","NORAD_CAT_ID":60577,"ELEMENT_SET_NO":999,"REV_AT_EPOCH":8536,"BSTAR":0.00080142638,"MEAN_MOTION_DOT":0.00012007,"MEAN_MOTION_DDOT":0}]
